YAM-7                   
1 60504U 24149AN  26068.71799904  .00009009  00000+0  30984-3 0  9997
2 60504  97.3828 149.4631 0001973 296.5121  63.5918 15.30304554 86835
STARLINK-36079          
1 66897U 25283V   26068.18175934  .00030282  00000+0  10321-2 0  9999
2 66897  53.1607  26.7195 0001177  62.3626 297.7495 15.30145991 15750
